ONEWEB-0267             
1 48985U 21060U   25333.19276541  .00000188  00000+0  45773-3 0  9999
2 48985  87.9034 268.5974 0002111  78.8945 281.2423 13.16596148213275
ONEWEB-0268             
1 48986U 21060V   25333.08510534  .00000026  00000+0  34326-4 0  9995
2 48986  87.9033 268.6269 0001873  78.7842 281.3500 13.16594328213525
ONEWEB-0269             
1 48987U 21060W   25332.83811589  .00000039  00000+0  69147-4 0  9995
2 48987  87.9025 268.6995 0001734  80.9876 279.1451 13.16595301213264
ONEWEB-0270             
1 48988U 21060X   25333.08352470 -.00000002  00000+0 -37823-4 0  9991
2 48988  87.9036 268.6291 0002240  71.2478 288.8896 13.16595123213330
ONEWEB-0271             
1 48989U 21060Y   25333.07085946  .00000044  00000+0  81492-4 0  9997
2 48989  87.9042 268.6199 0002097  77.1715 282.9651 13.16593819213338
ONEWEB-0272             
1 48990U 21060Z   25333.09301811  .00000029  00000+0  43271-4 0  9999
2 48990  87.9024 268.6325 0002041  81.5979 278.5383 13.16594199213280
ONEWEB-0273             
1 48991U 21060AA  25333.19118742  .00000094  00000+0  21273-3 0  9999
2 48991  87.9033 268.6073 0001979  74.2233 285.9116 13.16594780213273
ONEWEB-0274             
1 48992U 21060AB  25332.83652858  .00000010  00000+0 -80082-5 0  9995
2 48992  87.9026 268.7020 0001967  86.3638 273.7718 13.16593806213269
